     2              NAVIGATION DATA                         RINEX VERSION / TYPE
CCRINEXN V1.6.0 UX  CDDIS               24-FEB-13 15:33     PGM / RUN BY / DATE 
IGS BROADCAST EPHEMERIS FILE                                COMMENT             
    0.1397D-07  0.0000D+00 -0.5960D-07  0.5960D-07          ION ALPHA           
    0.1106D+06 -0.3277D+05 -0.2621D+06  0.1966D+06          ION BETA            
    0.372529029846D-08 0.124344978758D-13   147456     1729 DELTA-UTC: A0,A1,T,W
    16                                                      LEAP SECONDS        
                                                            END OF HEADER       
28 13  2 23 23 59 44.0 0.235393177718D-03 0.341060513165D-11 0.000000000000D+00
    0.110000000000D+02 0.169687500000D+02 0.450911619154D-08 0.263517508036D+00
    0.100955367088D-05 0.186628082301D-01 0.265613198280D-05 0.515363580894D+04
    0.604784000000D+06-0.219792127609D-06-0.175361274604D+01 0.335276126862D-07
    0.981874422211D+00 0.342281250000D+03-0.177936106391D+01-0.864393179256D-08
   -0.607168135214D-10 0.100000000000D+01 0.172800000000D+04 0.000000000000D+00
    0.200000000000D+01 0.000000000000D+00-0.107102096081D-07 0.110000000000D+02
    0.599310000000D+06 0.000000000000D+00 0.000000000000D+00 0.000000000000D+00
